ANIK F1R                
1 28868U 05036A   20058.69910640 -.00000077  00000-0  00000+0 0  9990
2 28868   0.0168 320.9589 0002693  48.7570 291.6316  1.00273851 53076
GALAXY 15 (G-15)        
1 28884U 05041A   20058.71021789  .00000076  00000-0  00000+0 0  9992
2 28884   0.0648 277.0744 0001660  59.1938 303.3866  1.00271015 52541
SYRACUSE 3A             
1 28885U 05041B   20058.80190316  .00000126  00000-0  00000-0 0  9993
2 28885   0.0397 108.5567 0002606 237.3452 146.8349  1.00272096 52676
INMARSAT 4-F2           
1 28899U 05044A   20059.40188331  .00000010  00000-0  00000+0 0  9993
2 28899   2.9793  29.0137 0002773 316.6375  20.6017  1.00273633 52435
TELKOM 2                
1 28902U 05046A   20058.82379938 -.00000141  00000-0  00000+0 0  9996
2 28902   0.0155 193.4858 0000394 233.8658 183.3018  1.00271425 52163
SPACEWAY 2              
1 28903U 05046B   20059.44921510 -.00000128  00000-0  00000+0 0  9990
2 28903   0.0172 321.5544 0000073  39.3188 219.4750  1.00272630 52422
METEOSAT-9 (MSG-2)      
1 28912U 05049B   20058.79317956  .00000015  00000-0  00000+0 0  9997
2 28912   4.1905  70.5450 0000478  42.3505 333.0300  1.00269839 52009
EUTELSAT 174A           
1 28924U 05052A   20058.82720157  .00000007  00000-0  00000-0 0  9991
2 28924   0.0696  21.1927 0005914 319.7852 287.8985  1.00272439 29257
ECHOSTAR 10             
1 28935U 06003A   20058.69910640 -.00000058  00000-0  00000-0 0  9990
2 28935   0.0680 292.0059 0001484  84.3314 282.1150  1.00272172 51401
HIMAWARI-7 (MTSAT-2)    
1 28937U 06004A   20058.89323918 -.00000246  00000-0  00000+0 0  9999
2 28937   0.0607  29.0653 0002124 294.9697 299.7198  1.00269294 51277
SPAINSAT                
1 28945U 06007A   20058.64728693 -.00000219  00000-0  00000-0 0  9994
2 28945   0.0441 245.7750 0004110  63.9264  50.2396  1.00272897 51136
EUTELSAT HOT BIRD 13E   
1 28946U 06007B   20058.86689392  .00000084  00000-0  00000-0 0  9990
2 28946   0.0449 227.1797 0002977 105.4811 149.5457  1.00270724 51237
JCSAT-5A                
1 29045U 06010A   20059.46492875 -.00000329  00000-0  00000+0 0  9992
2 29045   0.0563 273.7192 0001396  98.4843  84.9599  1.00273901 50879
ASTRA 1KR               
1 29055U 06012A   20058.86811522  .00000117  00000-0  00000-0 0  9997
2 29055   0.0620 273.8181 0003551  12.7408 202.2804  1.00271522 22650
GOES 13                 
1 29155U 06018A   20058.87757807  .00000035  00000-0  00000-0 0  9999
2 29155   0.4147 274.5277 0005824 320.5731 299.4172  1.00268849 20288
EUTELSAT 113 WEST A     
1 29162U 06020A   20059.41607662 -.00000039  00000-0  00000+0 0  9998
2 29162   0.0660 295.5590 0002981  54.2740 204.6260  1.00271993 50390
THAICOM 5               
1 29163U 06020B   20058.88868942  .00000083  00000-0  00000+0 0  9997
2 29163   0.1748 103.3595 0001768 180.2597 261.1854  0.99202069 50451
GALAXY 16 (G-16)        
1 29236U 06023A   20059.38382611 -.00000128  00000-0  00000+0 0  9992
2 29236   0.0121 126.3874 0002857 219.4767 210.9610  1.00271305 50190
EUTELSAT HOT BIRD 13B   
1 29270U 06032A   20059.29761025  .00000085  00000-0  00000+0 0  9991
2 29270   0.0780 328.0178 0005584   9.2129 300.4670  1.00270252 49788
JCSAT-3A                
1 29272U 06033A   20059.46414362 -.00000346  00000-0  00000+0 0  9993
2 29272   0.0263 238.6616 0001927 115.0213  99.1378  1.00273260 49695
SYRACUSE 3B             
1 29273U 06033B   20058.79152208 -.00000047  00000-0  00000-0 0  9996
2 29273   0.0193 168.6447 0003713 184.4522  83.7020  1.00272545 49621
KOREASAT 5 (MUGUNGWHA 5)
1 29349U 06034A   20058.88687095 -.00000361  00000-0  00000+0 0  9996
2 29349   0.0121 140.7243 0000584 186.1270 262.6348  1.00273982 49563
DIRECTV 9S              
1 29494U 06043A   20059.41843199 -.00000115  00000-0  00000+0 0  9993
2 29494   0.0162 165.0162 0002934 172.3756 229.7108  1.00272289 49035
OPTUS D1                
1 29495U 06043B   20058.82441003 -.00000113  00000-0  00000+0 0  9994
2 29495   0.0408 299.8937 0003430  38.4191 275.5677  1.00272224 49064
XM-4 (BLUES)            
1 29520U 06049A   20059.27205012 -.00000024  00000-0  00000+0 0  9998
2 29520   0.0168 324.8275 0000248  87.8171  87.5500  1.00271698 48924
BADR-4                  
1 29526U 06051A   20058.79771583  .00000141  00000-0  00000-0 0  9994
2 29526   0.0475 334.3537 0005746   1.1899 134.6844  1.00272179 28212
WILDBLUE-1              
1 29643U 06054A   20058.91394669 -.00000052  00000-0  00000+0 0  9998
2 29643   0.0195 161.0108 0001550 165.2704  48.7419  1.00274113 48479
AMC-18                  
1 29644U 06054B   20059.41084247  .00000103  00000-0  00000+0 0  9999
2 29644   0.0609 287.1108 0001321  98.9384 140.5165  1.00270987 48487
MEASAT-3                
1 29648U 06056A   20058.87126769 -.00000245  00000-0  00000-0 0  9999
2 29648   0.0328 140.3408 0000928 252.0651 169.9039  1.00272622 27394
INSAT-4B                
1 30793U 07007A   20058.82340903 -.00000192  00000-0  00000-0 0  9993
2 30793   0.1796 100.2687 0007342 207.8182 231.0140  1.00270988 19135
SKYNET 5A               
1 30794U 07007B   20059.38580576 -.00000272  00000-0  00000+0 0  9996
2 30794   0.3106  85.9990 0003421 259.4489  46.2896  1.00271225 47585
ANIK F3                 
1 31102U 07009A   20059.41494257 -.00000002  00000-0  00000+0 0  9997
2 31102   0.0149 198.6279 0002068 137.7831 211.9491  1.00269119 47266
ASTRA 1L                
1 31306U 07016A   20058.79632005  .00000117  00000-0  00000-0 0  9993
2 31306   0.0693 300.5540 0004839  17.4427 144.9388  1.00271135 21975
GALAXY 17 (G-17)        
1 31307U 07016B   20058.87549324 -.00000177  00000-0  00000+0 0  9990
2 31307   0.0130  93.5064 0003436 262.4352  25.3828  1.00274181 47000
ZHONGXING-6B            
1 31800U 07031A   20058.94308433 -.00000364  00000-0  00000+0 0  9995
2 31800   0.0261 243.8807 0002512  83.6233 284.6843  1.00268364 46397
DIRECTV 10              
1 31862U 07032A   20058.91560417 -.00000106  00000-0  00000+0 0  9997
2 31862   0.0182 253.5633 0000260  10.4906 120.0276  1.00269037 46330
SPACEWAY 3              
1 32018U 07036A   20059.29367468 -.00000153  00000-0  00000+0 0  9990
2 32018   0.0106 335.7028 0000169   6.5164 186.1122  1.00273689 46051
BSAT-3A                 
1 32019U 07036B   20058.88617306 -.00000353  00000-0  00000+0 0  9996
2 32019   0.0979 259.1203 0002424  14.5137 312.3944  1.00270942 45984
INSAT-4CR               
1 32050U 07037A   20058.84840881  .00000122  00000-0  00000+0 0  9997
2 32050   1.0746  94.3521 0008214 193.5709 222.4637  1.00273988 45770
OPTUS D2                
1 32252U 07044A   20058.82283979 -.00000186  00000-0  00000-0 0  9998
2 32252   0.0516 303.5879 0003539  37.1128 264.6181  1.00272451 45497
INTELSAT 11 (IS-11)     
1 32253U 07044B   20059.36160598 -.00000270  00000-0  00000+0 0  9993
2 32253   0.0167 157.5673 0001414 186.3949 260.8585  1.00272892 45458
WGS F1 (USA 195)        
1 32258U 07046A   20058.79370297  .00000038  00000-0  00000-0 0  9997
2 32258   0.0140 126.0020 0001205 266.5873  56.2002  1.00271558 29299
STAR ONE C1             
1 32293U 07056A   20059.40085860 -.00000278  00000-0  00000+0 0  9991
2 32293   0.0166 217.8735 0002982 118.7142 260.3840  1.00271851 45032
SKYNET 5B               
1 32294U 07056B   20059.36021891  .00000140  00000-0  00000+0 0  9998
2 32294   0.0700  14.3609 0003929 325.8515 332.1620  1.00272013 45118
ASTRA 4A (SIRIUS 4)     
1 32299U 07057A   20059.33920993  .00000031  00000-0  00000+0 0  9991
2 32299   0.0504 304.1956 0002818  29.8391 310.4916  1.00273061 44883
HORIZONS 2              
1 32388U 07063B   20059.38371211 -.00000184  00000-0  00000+0 0  9995
2 32388   0.0146 122.1017 0002655 206.5928  51.9357  1.00273580 44814
THURAYA-3               
1 32404U 08001A   20058.81219699 -.00000303  00000-0  00000+0 0  9998
2 32404   3.7672   7.9690 0004853 327.7225 212.2876  1.00273522 44456
EXPRESS-AM33            
1 32478U 08003A   20058.89563020 -.00000283  00000-0  00000-0 0  9997
2 32478   0.0416 283.1282 0001197 179.5946 113.3512  1.00271139 44538
THOR 5                  
1 32487U 08006A   20058.79239443 -.00000012  00000-0  00000-0 0  9998
2 32487   0.0532 270.9486 0002475  70.5692 100.0588  1.00271458 44221
AMC-14                  
1 32708U 08011A   20059.15743878  .00000088  00000-0  00000+0 0  9994
2 32708  20.7908  48.9149 0044049 355.2660 187.9156  1.00275429 45029
DIRECTV 11              
1 32729U 08013A   20059.38382611 -.00000128  00000-0  00000+0 0  9994
2 32729   0.0116 321.1389 0000234  27.1482 208.3542  1.00273843 43866
ICO G1                  
1 32763U 08016A   20058.91699994 -.00000172  00000-0  00000+0 0  9997
2 32763   3.6242  10.8312 0002417 343.3597  40.2570  1.00272234 43391
VINASAT-1               
1 32767U 08018A   20058.81882692 -.00000331  00000-0  00000-0 0  9999
2 32767   0.0512 305.9364 0001580  72.1489 205.7222  1.00273460 43527
STAR ONE C2             
1 32768U 08018B   20058.56322565 -.00000269  00000-0  00000+0 0  9999
2 32768   0.0213 141.0747 0000787 226.4921 282.0374  1.00273447 43467
TIANLIAN 1-01           
1 32779U 08019A   20059.43938227 -.00000139  00000-0  00000+0 0  9993
2 32779   3.8854  72.9840 0035635 255.0285  67.7851  1.00274196 43390
AMOS-3                  
1 32794U 08022A   20058.79169656 -.00000038  00000-0  00000-0 0  9993
2 32794   0.0124 132.3552 0001669 194.5903 111.0101  1.00272642 59281
GALAXY 18 (G-18)        
1 32951U 08024A   20058.70466087  .00000022  00000-0  00000+0 0  9990
2 32951   0.0134 125.1813 0002919 212.7273 309.7394  1.00270870 43003
CHINASAT 9 (ZX 9)       
1 33051U 08028A   20058.87126769 -.00000251  00000-0  00000-0 0  9990
2 33051   0.0091 173.3122 0004316 168.0601 221.6596  1.00272743 42967
SKYNET 5C               
1 33055U 08030A   20059.36321167 -.00000141  00000-0  00000+0 0  9998
2 33055   0.0621 356.0146 0002141 329.4790 305.1369  1.00270521 42825
